#aV2015  2  2  0  0  0.00000000     288 DD+AD WGS84 FIT  NGA
## 1830  86400.00000000   300.00000000 57055 0.0000000000000
+   31     1  2  3  4  5  6  7  8  9 10 11 12 13 14 15 16 17
+         18 19 20 21 22 23 24 25 27 28 29 30 31 32  0  0  0
+          0  0  0  0  0  0  0  0  0  0  0  0  0  0  0  0  0
+          0  0  0  0  0  0  0  0  0  0  0  0  0  0  0  0  0
+          0  0  0  0  0  0  0  0  0  0  0  0  0  0  0  0  0
++         2  2  2  2  2  2  2  2  2  2  2  2  2  2  2  2  2
++         2  2  2  2  2  2  2  2  2  2  2  2  2  2  0  0  0
++         0  0  0  0  0  0  0  0  0  0  0  0  0  0  0  0  0
++         0  0  0  0  0  0  0  0  0  0  0  0  0  0  0  0  0
++         0  0  0  0  0  0  0  0  0  0  0  0  0  0  0  0  0
%c cc cc ccc ccc cccc cccc cccc cccc ccccc ccccc ccccc ccccc
%c cc cc ccc ccc cccc cccc cccc cccc ccccc ccccc ccccc ccccc
%f  0.0000000  0.000000000  0.00000000000  0.000000000000000
%f  0.0000000  0.000000000  0.00000000000  0.000000000000000
%i    0    0    0    0      0      0      0      0         0
%i    0    0    0    0      0      0      0      0         0
/*      NGA, ST. LOUIS,MO.                                  
/*   EPHEMERIS COMPUTED FROM  1 DAYS OF DATA                
/*   EPOCHA SMOOTHER                                       
/* CCCCCCCCCCCCCCCCCCCCCCCCCCCCCCCCCCCCCCCCCCCCCCCCCCCCCCCCC
*  2015  2  2 11 45  0.00000000
P  1  16583.906326  13271.530030 -16101.842007     -9.474845                    
V  1 -20347.642637   -654.796680 -21397.093965      0.004262                    
P  2   7813.493756 -14682.901816  20963.808990    545.532415                    
V  2  25835.478379   3198.321618  -7985.901376      0.022946                    
P  3  13426.056904  22392.461933   4751.864433    186.239957                    
V  3   -187.647821   6671.055993 -30977.902675      0.223222                    
P  4   6117.288620  15859.318023 -20778.652907     -6.573580                    
V  4 -25648.828976  -1730.498458  -8745.315478     -0.005972                    
P  5     -0.549240 -23055.580618  12976.718239   -284.538447                    
V  5   9277.835530  14116.399819  25151.850053      0.051468                    
P  6  21664.814393  -7135.351902  13587.848682     69.749793                    
V  6  16925.860698   4066.565531 -24851.999722      0.116193                    
P  7  25188.483895   7236.678991   5467.027026    436.858380                    
V  7  -6961.842411   1148.033830  30765.485448      0.032513                    
P  8  -9187.585930  12285.483949  21776.247188     17.429711                    
V  8 -26265.205338  -7141.323065  -7719.102138      0.001597                    
P  9  15880.355196   3329.777771  21020.591437    -74.415787                    
V  9 -15207.523982  21981.788993   7993.233464     -0.120388                    
P 10  13591.723627  -7451.284067  21169.957102   -161.539219                    
V 10  11287.621013  25492.976277   2115.562053     -0.016706                    
P 11  10436.488280  14386.291820 -20291.262861   -555.102133                    
V 11 -24039.238328   6626.096725  -7722.318804     -0.026795                    
P 12 -10715.875097 -24355.004753   1906.226171    266.218545                    
V 12    718.627347  -2952.469190 -32100.191082      0.029176                    
P 13  10946.619741 -22071.892025 -10233.890516    -84.489051                    
V 13  10073.537110  -8000.924997  28332.526453     -0.035045                    
P 14 -20499.746675  13528.775253  -9692.796756     91.143150                    
V 14   6385.843616 -11232.990345 -28652.160608     -0.035205                    
P 15  -2861.200621 -19405.803131 -17846.576520   -229.920909                    
V 15  14468.226171 -17630.244912  17247.963437     -0.022354                    
P 16  -1101.065856  22694.064211  13377.578964   -159.810179                    
V 16  -7552.020717 -15536.379958  25981.362085      0.032489                    
P 17  20174.994893 -12163.754976 -11758.529328   -153.598400                    
V 17  -7896.176464  13476.877014 -27047.214254     -0.022187                    
P 18 -18047.038026  -7528.223749 -17633.644722    376.660324                    
V 18  -7796.364642 -22112.085428  16657.307455      0.027271                    
P 19  -3568.719260  20672.847044 -16182.412718   -499.028158                    
V 19 -15072.251620  13879.218870  21728.673072     -0.014971                    
P 20  18521.477387   6731.505468  17697.269784    285.353232                    
V 20   8704.265666  21267.697468 -16930.488367      0.041274                    
P 21 -26507.840909  -3703.878245   1446.502942   -412.280474                    
V 21   1346.328462  -3182.651165  30826.768815     -0.041618                    
P 22 -14475.515916   6643.603994 -21037.014295    313.945562                    
V 22 -11420.164031 -24883.010957   -171.339623      0.042005                    
P 23   8958.312661  13374.110122  21195.629045    -85.976833                    
V 23 -16672.940818  20900.078761  -6602.639297     -0.026544                    
P 24 -13679.792803 -14111.504946 -17955.825953    -42.774554                    
V 24  22761.288474    625.722818 -17720.683052     -0.006258                    
P 25 -16675.761421 -16018.835961  13128.220625     -0.872627                    
V 25  -5099.991905 -16010.223436 -25701.191653     -0.026617                    
P 27 -11263.097076  23075.043216  -6612.339325     48.622511                    
V 27  -7069.251096   5232.631833  30431.354473      0.026573                    
P 28  14855.585354   -344.965004 -21403.529445    416.708153                    
V 28   9271.164675  27050.247557   5737.928538      0.025538                    
P 29 -13358.335475  -7203.834231  21823.877114    589.667260                    
V 29  17335.774076 -21486.034926   3563.866772      0.023887                    
P 30  26025.565135   1141.118236  -5308.617611    -85.764922                    
V 30   6090.699150   4008.890015  30689.461472      0.007922                    
P 31 -19989.593693   7973.560963  15929.231162    324.196470                    
V 31 -19397.308028  -4179.988132 -22119.141356     -0.007736                    
P 32   3229.826986  25643.480966  -7253.458533   -233.293681                    
V 32  -5421.929231  -7750.378228 -29291.957866      0.089740                    
EOF
